NORAD_CAT_ID,OBJECT_NAME,OBJECT_TYPE,EPOCH,MEAN_MOTION,ECCENTRICITY,INCLINATION,RA_OF_ASC_NODE,ARG_OF_PERICENTER,MEAN_ANOMALY,BSTAR,MEAN_MOTION_DOT,MEAN_MOTION_DDOT,TLE_LINE0,TLE_LINE1,TLE_LINE2,SEMIMAJOR_AXIS,PERIOD,APOGEE,PERIGEE,DECAYED
54778.0,STARLINK-5450,PAYLOAD,2023-06-10 01:16:54,15.08837326,6.95e-05,53.2168,214.6854,84.3771,275.73,3.7121e-06,-2.29e-06,0.0,0 STARLINK-5450,1 54778U 22175W   23161.05340986 -.00000229  00000-0  37121-5 0  9999,2 54778  53.2168 214.6854 0000695  84.3771 275.7300 15.08837326 26452,6917.889,95.438,540.234,539.273,0.0
54778.0,STARLINK-5450,PAYLOAD,2023-06-10 12:24:36,15.0884054,7.07e-05,53.2164,212.6036,81.0954,279.0118,3.1079e-05,2.07e-06,0.0,0 STARLINK-5450,1 54778U 22175W   23161.51708726  .00000207  00000-0  31079-4 0  9990,2 54778  53.2164 212.6036 0000707  81.0954 279.0118 15.08840540 28682,6917.879,95.438,540.233,539.255,0.0
54778.0,STARLINK-5450,PAYLOAD,2023-06-10 20:21:32,15.08836838,7.12e-05,53.2164,211.1167,82.2656,277.8417,-1.2798e-06,-3.08e-06,0.0,0 STARLINK-5450,1 54778U 22175W   23161.84829077 -.00000308  00000-0 -12798-5 0  9991,2 54778  53.2164 211.1167 0000712  82.2656 277.8417 15.08836838 28738,6917.89,95.438,540.248,539.263,0.0
54778.0,STARLINK-5450,PAYLOAD,2023-06-11 02:43:04,15.08833673,6.99e-05,53.2162,209.9265,79.216,280.8911,5.4675e-05,5.83e-06,0.0,0 STARLINK-5450,1 54778U 22175W   23162.11325111  .00000583  00000-0  54675-4 0  9994,2 54778  53.2162 209.9265 0000699  79.2160 280.8911 15.08833673 26612,6917.9,95.438,540.248,539.281,0.0
54778.0,STARLINK-5450,PAYLOAD,2023-06-11 04:18:28,15.08832099,6.96e-05,53.2163,209.6289,79.1264,280.9806,4.3268e-05,4.01e-06,0.0,0 STARLINK-5450,1 54778U 22175W   23162.17949275  .00000401  00000-0  43268-4 0  9998,2 54778  53.2163 209.6289 0000696  79.1264 280.9806 15.08832099 28782,6917.905,95.438,540.251,539.288,0.0
54778.0,STARLINK-5450,PAYLOAD,2023-06-11 20:12:19,15.08838177,6.96e-05,53.2163,206.6551,77.4246,282.6823,3.4868e-05,2.67e-06,0.0,0 STARLINK-5450,1 54778U 22175W   23162.84189007  .00000267  00000-0  34868-4 0  9997,2 54778  53.2163 206.6551 0000696  77.4246 282.6823 15.08838177 28884,6917.886,95.438,540.232,539.269,0.0
54778.0,STARLINK-5450,PAYLOAD,2023-06-12 08:55:24,15.08841701,7.18e-05,53.2162,204.2759,78.2923,281.8149,3.349e-05,2.45e-06,0.0,0 STARLINK-5450,1 54778U 22175W   23163.37180706  .00000245  00000-0  33490-4 0  9999,2 54778  53.2162 204.2759 0000718  78.2923 281.8149 15.08841701 26802,6917.875,95.437,540.237,539.243,0.0
54778.0,STARLINK-5450,PAYLOAD,2023-06-12 20:03:06,15.08840181,7.6e-05,53.2166,202.1946,76.5817,283.526,-2.9097e-06,-3.34e-06,0.0,0 STARLINK-5450,1 54778U 22175W   23163.83548836 -.00000334  00000-0 -29097-5 0  9992,2 54778  53.2166 202.1946 0000760  76.5817 283.5260 15.08840181 29033,6917.88,95.438,540.271,539.219,0.0
54778.0,STARLINK-5450,PAYLOAD,2023-06-13 02:24:39,15.08835357,8.32e-05,53.2169,201.0055,77.8517,282.2569,-2.3145e-05,-6.56e-06,0.0,0 STARLINK-5450,1 54778U 22175W   23164.10045248 -.00000656  00000-0 -23145-4 0  9996,2 54778  53.2169 201.0055 0000832  77.8517 282.2569 15.08835357 26917,6917.895,95.438,540.335,539.184,0.0
54778.0,STARLINK-5450,PAYLOAD,2023-06-13 19:53:53,15.08837214,8.35e-05,53.2165,197.735,72.0946,288.0137,-3.4441e-05,-8.36e-06,0.0,0 STARLINK-5450,1 54778U 22175W   23164.82909235 -.00000836  00000-0 -34441-4 0  9991,2 54778  53.2165 197.7350 0000835  72.0946 288.0137 15.08837214 29189,6917.889,95.438,540.332,539.176,0.0
54778.0,STARLINK-5450,PAYLOAD,2023-06-13 23:04:39,15.08840316,7.56e-05,53.216,197.139,81.7464,278.3614,-2.016e-05,-6.08e-06,0.0,0 STARLINK-5450,1 54778U 22175W   23164.96156964 -.00000608  00000-0 -20160-4 0  9999,2 54778  53.2160 197.1390 0000756  81.7464 278.3614 15.08840316 27048,6917.879,95.438,540.267,539.221,0.0
54778.0,STARLINK-5450,PAYLOAD,2023-06-15 02:06:13,15.08833086,7.67e-05,53.216,192.084,75.8023,284.3055,1.5793e-05,-3.6e-07,0.0,0 STARLINK-5450,1 54778U 22175W   23166.08765254 -.00000036  00000-0  15793-4 0  9992,2 54778  53.2160 192.0840 0000767  75.8023 284.3055 15.08833086 27210,6917.902,95.438,540.297,539.236,0.0
54778.0,STARLINK-5450,PAYLOAD,2023-06-15 06:52:22,15.08832854,7.72e-05,53.216,191.1918,76.0758,284.032,1.2103e-05,-9.5e-07,0.0,0 STARLINK-5450,1 54778U 22175W   23166.28637341 -.00000095  00000-0  12103-4 0  9996,2 54778  53.2160 191.1918 0000772  76.0758 284.0320 15.08832854 29407,6917.902,95.438,540.301,539.233,0.0
54778.0,STARLINK-5450,PAYLOAD,2023-06-16 08:18:32,15.08840067,7.96e-05,53.2161,186.4345,72.3304,287.7775,1.0426e-05,-1.22e-06,0.0,0 STARLINK-5450,1 54778U 22175W   23167.34621069 -.00000122  00000-0  10426-4 0  9991,2 54778  53.2161 186.4345 0000796  72.3304 287.7775 15.08840067 27408,6917.88,95.438,540.296,539.195,0.0
54778.0,STARLINK-5450,PAYLOAD,2023-06-16 17:50:51,15.08837245,8.14e-05,53.2162,184.6509,74.7113,285.3969,-3.4424e-06,-3.42e-06,0.0,0 STARLINK-5450,1 54778U 22175W   23167.74365301 -.00000342  00000-0 -34424-5 0  9999,2 54778  53.2162 184.6509 0000814  74.7113 285.3969 15.08837245 29625,6917.889,95.438,540.317,539.191,0.0
54778.0,STARLINK-5450,PAYLOAD,2023-06-17 08:09:19,15.08835197,8.17e-05,53.2161,181.9738,69.0803,291.0276,9.1402e-06,-1.42e-06,0.0,0 STARLINK-5450,1 54778U 22175W   23168.33981468 -.00000142  00000-0  91402-5 0  9999,2 54778  53.2161 181.9738 0000817  69.0803 291.0276 15.08835197 29713,6917.895,95.438,540.325,539.195,0.0
54778.0,STARLINK-5450,PAYLOAD,2023-06-17 17:41:39,15.08833362,7.87e-05,53.2158,180.1899,69.6894,290.4183,-1.5001e-05,-5.26e-06,0.0,0 STARLINK-5450,1 54778U 22175W   23168.73725764 -.00000526  00000-0 -15001-4 0  9995,2 54778  53.2158 180.1899 0000787  69.6894 290.4183 15.08833362 27619,6917.901,95.438,540.31,539.221,0.0
54778.0,STARLINK-5450,PAYLOAD,2023-06-18 00:03:11,15.08858023,7.3e-05,53.2164,179.0004,73.822,286.2852,-0.00037694,-6.284e-05,0.0,0 STARLINK-5450,1 54778U 22175W   23169.00222085 -.00006284  00000-0 -37694-3 0  9992,2 54778  53.2164 179.0004 0000730  73.8220 286.2852 15.08858023 27650,6917.825,95.436,540.195,539.185,0.0
54778.0,STARLINK-5450,PAYLOAD,2023-06-18 04:49:21,15.08831955,8.41e-05,53.2164,178.1084,70.1173,289.991,-5.5475e-05,-1.17e-05,0.0,0 STARLINK-5450,1 54778U 22175W   23169.20094214 -.00001170  00000-0 -55475-4 0  9992,2 54778  53.2164 178.1084 0000841  70.1173 289.9910 15.08831955 29841,6917.905,95.438,540.352,539.188,0.0
54778.0,STARLINK-5450,PAYLOAD,2023-06-18 08:00:07,15.08832112,8.46e-05,53.2164,177.5137,69.6923,290.416,-5.2038e-05,-1.116e-05,0.0,0 STARLINK-5450,1 54778U 22175W   23169.33342251 -.00001116  00000-0 -52038-4 0  9995,2 54778  53.2164 177.5137 0000846  69.6923 290.4160 15.08832112 27707,6917.904,95.438,540.355,539.184,0.0
54778.0,STARLINK-5450,PAYLOAD,2023-06-19 01:29:22,15.08834401,8.27e-05,53.2166,174.2425,74.9187,285.1897,-7.2555e-06,-4.03e-06,0.0,0 STARLINK-5450,1 54778U 22175W   23170.06206173 -.00000403  00000-0 -72555-5 0  9994,2 54778  53.2166 174.2425 0000827  74.9187 285.1897 15.08834401 29975,6917.898,95.438,540.335,539.19,0.0
54778.0,STARLINK-5450,PAYLOAD,2023-06-19 17:23:13,15.08836721,8.7e-05,53.2165,171.269,72.8077,287.3011,3.306e-05,2.38e-06,0.0,0 STARLINK-5450,1 54778U 22175W   23170.72446042  .00000238  00000-0  33060-4 0  9999,2 54778  53.2165 171.2690 0000870  72.8077 287.3011 15.08836721 27919,6917.89,95.438,540.357,539.154,0.0
54778.0,STARLINK-5450,PAYLOAD,2023-06-20 09:17:04,15.08839198,8.76e-05,53.2161,168.2945,73.668,286.4408,7.8349e-05,9.59e-06,0.0,0 STARLINK-5450,1 54778U 22175W   23171.38685766  .00000959  00000-0  78349-4 0  9999,2 54778  53.2161 168.2945 0000876  73.6680 286.4408 15.08839198 30172,6917.883,95.438,540.354,539.142,0.0
54778.0,STARLINK-5450,PAYLOAD,2023-06-21 05:57:05,15.08841846,9.48e-05,53.216,164.4292,70.4177,289.6918,2.6808e-05,1.39e-06,0.0,0 STARLINK-5450,1 54778U 22175W   23172.24797730  .00000139  00000-0  26808-4 0  9993,2 54778  53.2160 164.4292 0000948  70.4177 289.6918 15.08841846 28148,6917.875,95.437,540.396,539.084,0.0
54778.0,STARLINK-5450,PAYLOAD,2023-06-21 17:04:47,15.08841899,0.0001008,53.2159,162.3484,66.9281,293.1817,1.0216e-05,-1.25e-06,0.0,0 STARLINK-5450,1 54778U 22175W   23172.71165697 -.00000125  00000-0  10216-4 0  9998,2 54778  53.2159 162.3484 0001008  66.9281 293.1817 15.08841899 30374,6917.875,95.437,540.437,539.042,0.0
54778.0,STARLINK-5450,PAYLOAD,2023-06-22 08:58:38,15.08841118,0.0001058,53.2167,159.3736,82.2226,277.8886,-2.5387e-05,-6.92e-06,0.0,0 STARLINK-5450,1 54778U 22175W   23173.37405754 -.00000692  00000-0 -25387-4 0  9997,2 54778  53.2167 159.3736 0001058  82.2226 277.8886 15.08841118 28314,6917.877,95.437,540.474,539.01,0.0
54778.0,STARLINK-5450,PAYLOAD,2023-06-23 15:10:58,15.08835058,0.0001052,53.2167,153.7241,79.4356,280.6755,-4.0145e-05,-9.27e-06,0.0,0 STARLINK-5450,1 54778U 22175W   23174.63262204 -.00000927  00000-0 -40145-4 0  9998,2 54778  53.2167 153.7241 0001052  79.4356 280.6755 15.08835058 28503,6917.895,95.438,540.488,539.033,0.0
54778.0,STARLINK-5450,PAYLOAD,2023-06-25 02:09:27,15.08835613,0.0001022,53.2167,147.1833,81.8263,278.2845,-7.6833e-06,-4.1e-06,0.0,0 STARLINK-5450,1 54778U 22175W   23176.08990430 -.00000410  00000-0 -76833-5 0  9999,2 54778  53.2167 147.1833 0001022  81.8263 278.2845 15.08835613 28722,6917.894,95.438,540.466,539.052,0.0
54778.0,STARLINK-5450,PAYLOAD,2023-06-25 08:30:59,15.08841454,0.000105,53.2168,145.9937,82.5076,277.6036,4.0923e-05,3.64e-06,0.0,0 STARLINK-5450,1 54778U 22175W   23176.35485910  .00000364  00000-0  40923-4 0  9997,2 54778  53.2168 145.9937 0001050  82.5076 277.6036 15.08841454 28764,6917.876,95.437,540.467,539.015,0.0
54778.0,STARLINK-5450,PAYLOAD,2023-06-25 14:52:32,15.08836628,0.0001011,53.2169,144.8046,84.4527,275.658,-6.0978e-06,-3.85e-06,0.0,0 STARLINK-5450,1 54778U 22175W   23176.61982401 -.00000385  00000-0 -60978-5 0  9991,2 54778  53.2169 144.8046 0001011  84.4527 275.6580 15.08836628 28807,6917.891,95.438,540.455,539.056,0.0
